NORAD_CAT_ID,OBJECT_NAME,OBJECT_TYPE,EPOCH,MEAN_MOTION,ECCENTRICITY,INCLINATION,RA_OF_ASC_NODE,ARG_OF_PERICENTER,MEAN_ANOMALY,BSTAR,MEAN_MOTION_DOT,MEAN_MOTION_DDOT,TLE_LINE0,TLE_LINE1,TLE_LINE2,SEMIMAJOR_AXIS,PERIOD,APOGEE,PERIGEE,DECAYED
55419.0,STARLINK-5629,PAYLOAD,2024-04-06 21:47:11,14.98329836,0.0002692,70.0009,53.835,272.0717,88.0133,-5.4302e-05,-7.41e-06,0.0,0 STARLINK-5629,1 55419U 23014AE  24097.90776935 -.00000741  00000-0 -54302-4 0  9994,2 55419  70.0009  53.8350 0002692 272.0717  88.0133 14.98329836 66447,6950.193,96.107,573.929,570.187,0.0
55419.0,STARLINK-5629,PAYLOAD,2024-04-07 07:23:59,14.98330002,0.0002649,70.0009,52.8254,268.5763,91.5092,-6.1152e-05,-8.22e-06,0.0,0 STARLINK-5629,1 55419U 23014AE  24098.30832925 -.00000822  00000-0 -61152-4 0  9992,2 55419  70.0009  52.8254 0002649 268.5763  91.5092 14.98330002 66509,6950.193,96.107,573.899,570.217,0.0
55419.0,STARLINK-5629,PAYLOAD,2024-04-07 21:49:11,14.98332687,0.0002758,70.0007,51.3096,272.1766,87.9077,3.9996e-05,3.84e-06,0.0,0 STARLINK-5629,1 55419U 23014AE  24098.90916426  .00000384  00000-0  39996-4 0  9999,2 55419  70.0007  51.3096 0002758 272.1766  87.9077 14.98332687 66592,6950.185,96.107,573.966,570.133,0.0
55419.0,STARLINK-5629,PAYLOAD,2024-04-08 04:13:43,14.98334407,0.0002814,70.0008,50.6368,268.2222,91.8615,5.4894e-05,5.62e-06,0.0,0 STARLINK-5629,1 55419U 23014AE  24099.17620207  .00000562  00000-0  54894-4 0  9990,2 55419  70.0008  50.6368 0002814 268.2222  91.8615 14.98334407 65697,6950.179,96.107,574.0,570.088,0.0
55419.0,STARLINK-5629,PAYLOAD,2024-04-08 13:50:32,14.98332503,0.0002824,70.001,49.6268,269.3725,90.711,1.7517e-05,1.16e-06,0.0,0 STARLINK-5629,1 55419U 23014AE  24099.57676339  .00000116  00000-0  17517-4 0  9997,2 55419  70.0010  49.6268 0002824 269.3725  90.7110 14.98332503 66692,6950.185,96.107,574.013,570.087,0.0
55419.0,STARLINK-5629,PAYLOAD,2024-04-08 23:27:21,14.98327247,0.0002852,70.0011,48.6169,269.5209,90.5623,5.3352e-06,-2.9e-07,0.0,0 STARLINK-5629,1 55419U 23014AE  24099.97732718 -.00000029  00000-0  53352-5 0  9997,2 55419  70.0011  48.6169 0002852 269.5209  90.5623 14.98327247 66755,6950.201,96.107,574.049,570.084,0.0
55419.0,STARLINK-5629,PAYLOAD,2024-04-09 04:15:45,14.98329775,0.0002846,70.001,48.1118,270.1699,89.9134,3.2391e-05,2.94e-06,0.0,0 STARLINK-5629,1 55419U 23014AE  24100.17760501  .00000294  00000-0  32391-4 0  9995,2 55419  70.0010  48.1118 0002846 270.1699  89.9134 14.98329775 65843,6950.194,96.107,574.037,570.081,0.0
55419.0,STARLINK-5629,PAYLOAD,2024-04-09 13:52:33,14.98349371,0.000267,70.0011,47.102,277.9335,82.1521,-0.00036022,-4.39e-05,0.0,0 STARLINK-5629,1 55419U 23014AE  24100.57816274 -.00004390  00000-0 -36022-3 0  9995,2 55419  70.0011  47.1020 0002670 277.9335  82.1521 14.98349371 66842,6950.133,96.106,573.854,570.142,0.0
55419.0,STARLINK-5629,PAYLOAD,2024-04-10 04:17:45,14.98334971,0.0002998,70.0005,45.5859,269.9328,90.1488,-1.3316e-05,-2.52e-06,0.0,0 STARLINK-5629,1 55419U 23014AE  24101.17900191 -.00000252  00000-0 -13316-4 0  9999,2 55419  70.0005  45.5859 0002998 269.9328  90.1488 14.98334971 65999,6950.178,96.107,574.126,569.959,0.0
55419.0,STARLINK-5629,PAYLOAD,2024-04-10 13:54:34,14.98330579,0.0002762,70.0016,44.5757,268.4263,91.658,-3.1385e-05,-4.67e-06,0.0,0 STARLINK-5629,1 55419U 23014AE  24101.57956508 -.00000467  00000-0 -31385-4 0  9990,2 55419  70.0016  44.5757 0002762 268.4263  91.6580 14.98330579 66998,6950.191,96.107,573.976,570.136,0.0
55419.0,STARLINK-5629,PAYLOAD,2024-04-10 20:19:06,14.98326605,0.0002903,70.001,43.9023,270.2238,89.8589,7.5249e-06,-3e-08,0.0,0 STARLINK-5629,1 55419U 23014AE  24101.84660589 -.00000003  00000-0  75249-5 0  9994,2 55419  70.0010  43.9023 0002903 270.2238  89.8589 14.98326605 66095,6950.203,96.107,574.086,570.051,0.0
55419.0,STARLINK-5629,PAYLOAD,2024-04-10 21:55:14,14.98325621,0.000293,70.0008,43.7348,270.231,89.8513,-9.1712e-06,-2.02e-06,0.0,0 STARLINK-5629,1 55419U 23014AE  24101.91336702 -.00000202  00000-0 -91712-5 0  9994,2 55419  70.0008  43.7348 0002930 270.2310  89.8513 14.98325621 67041,6950.206,96.107,574.108,570.035,0.0
55419.0,STARLINK-5629,PAYLOAD,2024-04-11 13:56:35,14.98330139,0.0002798,70.0014,42.0516,265.3151,94.7689,6.7557e-07,-8.5e-07,0.0,0 STARLINK-5629,1 55419U 23014AE  24102.58096451 -.00000085  00000-0  67557-6 0  9991,2 55419  70.0014  42.0516 0002798 265.3151  94.7689 14.98330139 67147,6950.192,96.107,574.002,570.113,0.0
55419.0,STARLINK-5629,PAYLOAD,2024-04-11 20:21:07,14.98332305,0.0002503,70.0014,41.3784,273.6083,86.479,-4.7115e-05,-6.55e-06,0.0,0 STARLINK-5629,1 55419U 23014AE  24102.84800589 -.00000655  00000-0 -47115-4 0  9995,2 55419  70.0014  41.3784 0002503 273.6083  86.4790 14.98332305 66244,6950.186,96.107,573.79,570.311,0.0
55419.0,STARLINK-5629,PAYLOAD,2024-04-11 21:57:15,14.98317638,0.0002904,70.0012,41.2098,268.9592,91.1234,0.00019523,2.236e-05,0.0,0 STARLINK-5629,1 55419U 23014AE  24102.91476776  .00002236  00000-0  19523-3 0  9996,2 55419  70.0012  41.2098 0002904 268.9592  91.1234 14.98317638 67199,6950.231,96.108,574.114,570.078,0.0
55419.0,STARLINK-5629,PAYLOAD,2024-04-12 05:57:55,14.98335292,0.0002889,70.0012,40.3683,270.0057,90.0771,2.3347e-05,1.86e-06,0.0,0 STARLINK-5629,1 55419U 23014AE  24103.24856024  .00000186  00000-0  23347-4 0  9993,2 55419  70.0012  40.3683 0002889 270.0057  90.0771 14.98335292 67247,6950.177,96.107,574.049,570.034,0.0
55419.0,STARLINK-5629,PAYLOAD,2024-04-12 21:59:16,14.98330633,0.0002775,70.0016,38.6853,271.8756,88.2085,2.9504e-05,2.59e-06,0.0,0 STARLINK-5629,1 55419U 23014AE  24103.91616259  .00000259  00000-0  29504-4 0  9993,2 55419  70.0016  38.6853 0002775 271.8756  88.2085 14.98330633 67341,6950.191,96.107,573.985,570.127,0.0
55419.0,STARLINK-5629,PAYLOAD,2024-04-13 04:23:48,14.98331296,0.0002757,70.0017,38.0122,271.1259,88.9584,4.8112e-05,4.81e-06,0.0,0 STARLINK-5629,1 55419U 23014AE  24104.18320152  .00000481  00000-0  48112-4 0  9990,2 55419  70.0017  38.0122 0002757 271.1259  88.9584 14.98331296 66443,6950.189,96.107,573.97,570.138,0.0
55419.0,STARLINK-5629,PAYLOAD,2024-04-13 05:59:56,14.98332192,0.0002751,70.0017,37.8439,271.2692,88.8152,5.7408e-05,5.92e-06,0.0,0 STARLINK-5629,1 55419U 23014AE  24104.24996065  .00000592  00000-0  57408-4 0  9990,2 55419  70.0017  37.8439 0002751 271.2692  88.8152 14.98332192 67398,6950.186,96.107,573.963,570.139,0.0
55419.0,STARLINK-5629,PAYLOAD,2024-04-13 20:25:09,14.98331843,0.0002736,70.0019,36.3292,270.523,89.5615,-1.0214e-05,-2.15e-06,0.0,0 STARLINK-5629,1 55419U 23014AE  24104.85080205 -.00000215  00000-0 -10214-4 0  9995,2 55419  70.0019  36.3292 0002736 270.5230  89.5615 14.98331843 67488,6950.187,96.107,573.954,570.151,0.0
55419.0,STARLINK-5629,PAYLOAD,2024-04-14 04:25:49,14.98335009,0.0002685,70.002,35.4894,260.9348,99.1507,2.3861e-05,1.92e-06,0.0,0 STARLINK-5629,1 55419U 23014AE  24105.18459808  .00000192  00000-0  23861-4 0  9995,2 55419  70.0020  35.4894 0002685 260.9348  99.1507 14.98335009 66590,6950.177,96.107,573.909,570.176,0.0
55419.0,STARLINK-5629,PAYLOAD,2024-04-14 20:27:10,14.98328932,0.0002505,70.0026,33.8062,245.6356,114.4542,-1.0002e-05,-2.12e-06,0.0,0 STARLINK-5629,1 55419U 23014AE  24105.85220170 -.00000212  00000-0 -10002-4 0  9995,2 55419  70.0026  33.8062 0002505 245.6356 114.4542 14.98328932 66693,6950.196,96.107,573.802,570.32,0.0
55419.0,STARLINK-5629,PAYLOAD,2024-04-14 22:03:19,14.98311338,0.0002769,70.0025,33.6389,263.8693,96.2151,-0.00017908,-2.228e-05,0.0,0 STARLINK-5629,1 55419U 23014AE  24105.91897724 -.00002228  00000-0 -17908-3 0  9997,2 55419  70.0025  33.6389 0002769 263.8693  96.2151 14.98311338 67641,6950.251,96.108,574.04,570.191,0.0
55419.0,STARLINK-5629,PAYLOAD,2024-04-15 04:27:50,14.9832805,0.000218,70.0033,32.9657,255.3658,104.7259,1.0949e-05,3.8e-07,0.0,0 STARLINK-5629,1 55419U 23014AE  24106.18600393  .00000038  00000-0  10949-4 0  9995,2 55419  70.0033  32.9657 0002180 255.3658 104.7259 14.98328050 67681,6950.199,96.107,573.579,570.549,0.0
55419.0,STARLINK-5629,PAYLOAD,2024-04-15 20:29:11,14.98330016,0.0002634,70.003,31.2826,239.1425,120.9475,-2.8442e-06,-1.27e-06,0.0,0 STARLINK-5629,1 55419U 23014AE  24106.85360042 -.00000127  00000-0 -28442-5 0  9992,2 55419  70.0030  31.2826 0002634 239.1425 120.9475 14.98330016 66846,6950.193,96.107,573.889,570.227,0.0
55419.0,STARLINK-5629,PAYLOAD,2024-04-16 12:30:31,14.98337651,0.0002608,70.0029,29.5971,267.19,92.896,0.00010389,1.147e-05,0.0,0 STARLINK-5629,1 55419U 23014AE  24107.52119290  .00001147  00000-0  10389-3 0  9994,2 55419  70.0029  29.5971 0002608 267.1900  92.8960 14.98337651 66944,6950.169,96.107,573.847,570.222,0.0
55419.0,STARLINK-5629,PAYLOAD,2024-04-16 22:07:19,14.98325515,0.0002866,70.002,28.5864,274.0054,86.0777,0.00033379,3.891e-05,0.0,0 STARLINK-5629,1 55419U 23014AE  24107.92175149  .00003891  00000-0  33379-3 0  9995,2 55419  70.0020  28.5864 0002866 274.0054  86.0777 14.98325515 67946,6950.207,96.107,574.064,570.08,0.0
55419.0,STARLINK-5629,PAYLOAD,2024-04-17 04:31:50,14.98342716,0.0002872,70.002,27.9149,274.5676,85.5155,0.00034786,4.061e-05,0.0,0 STARLINK-5629,1 55419U 23014AE  24108.18877932  .00004061  00000-0  34786-3 0  9996,2 55419  70.0020  27.9149 0002872 274.5676  85.5155 14.98342716 67044,6950.154,96.106,574.015,570.022,0.0
55419.0,STARLINK-5629,PAYLOAD,2024-04-17 20:33:14,14.98311213,0.0003131,70.0014,26.2285,264.3795,95.7007,-0.00016386,-2.047e-05,0.0,0 STARLINK-5629,1 55419U 23014AE  24108.85641343 -.00002047  00000-0 -16386-3 0  9995,2 55419  70.0014  26.2285 0003131 264.3795  95.7007 14.98311213 67146,6950.251,96.108,574.292,569.94,0.0
55419.0,STARLINK-5629,PAYLOAD,2024-04-17 22:09:22,14.98311157,0.00031,70.0014,26.0603,264.5762,95.5044,-0.00016231,-2.028e-05,0.0,0 STARLINK-5629,1 55419U 23014AE  24108.92317411 -.00002028  00000-0 -16231-3 0  9997,2 55419  70.0014  26.0603 0003100 264.5762  95.5044 14.98311157 68091,6950.251,96.108,574.271,569.962,0.0
